IRIDIUM 171             
1 43929U 19002H   24279.89595583  .00001596  00000+0  56264-3 0  9991
2 43929  86.3937 252.5700 0002760  84.9704 275.1806 14.34220127300191
IRIDIUM 170             
1 43930U 19002J   24279.84341805  .00006142  00000+0  97001-3 0  9990
2 43930  86.6060 252.3911 0002653  79.0191 281.1325 14.72229426308139
IRIDIUM 167             
1 43931U 19002K   24279.88961613 -.00000053  00000+0 -26127-4 0  9999
2 43931  86.3931 252.3515 0002366  87.8661 272.2805 14.34217723300191
IRIDIUM 181             
1 56726U 23068S   24279.80564510  .00002203  00000+0  64498-3 0  9998
2 56726  86.8607 311.5358 0002512  92.4632 267.6858 14.43578880 73094
IRIDIUM 177             
1 56727U 23068T   24279.82158320  .00003282  00000+0  42804-3 0  9994
2 56727  86.1924 262.8076 0002456 101.5229 258.6268 14.80260363 74749
IRIDIUM 174             
1 56728U 23068U   24279.88398965  .00003440  00000+0  44899-3 0  9994
2 56728  86.1930 262.8906 0002594  97.9984 262.1531 14.80245132 74759
IRIDIUM 178             
1 56729U 23068V   24279.74300353  .00002259  00000+0  29376-3 0  9994
2 56729  86.5716 285.6765 0002419  91.1068 269.0431 14.80237014 74730
IRIDIUM 179             
1 56730U 23068W   24280.07559044  .00002827  00000+0  36857-3 0  9990
2 56730  86.6729 291.0703 0002364 102.9724 257.1762 14.80239097 74782
