<?xml version="1.0" encoding="UTF-8"?>
<ndm xmlns:xsi="http://www.w3.org/2001/XMLSchema-instance" xsi:noNamespaceSchemaLocation="https://sanaregistry.org/r/ndmxml_unqualified/ndmxml-2.0.0-master-2.0.xsd">
<omm id="CCSDS_OMM_VERS" version="2.0">
<header><CREATION_DATE/><ORIGINATOR/></header><body><segment><metadata><OBJECT_NAME>IRIDIUM 171</OBJECT_NAME><OBJECT_ID>2019-002H</OBJECT_ID><CENTER_NAME>EARTH</CENTER_NAME><REF_FRAME>TEME</REF_FRAME><TIME_SYSTEM>UTC</TIME_SYSTEM><MEAN_ELEMENT_THEORY>SGP4</MEAN_ELEMENT_THEORY></metadata><data><meanElements><EPOCH>2024-10-05T21:30:10.583712</EPOCH><MEAN_MOTION>14.34220127</MEAN_MOTION><ECCENTRICITY>.000276</ECCENTRICITY><INCLINATION>86.3937</INCLINATION><RA_OF_ASC_NODE>252.5700</RA_OF_ASC_NODE><ARG_OF_PERICENTER>84.9704</ARG_OF_PERICENTER><MEAN_ANOMALY>275.1806</MEAN_ANOMALY></meanElements><tleParameters><EPHEMERIS_TYPE>0</EPHEMERIS_TYPE><CLASSIFICATION_TYPE>U</CLASSIFICATION_TYPE><NORAD_CAT_ID>43929</NORAD_CAT_ID><ELEMENT_SET_NO>999</ELEMENT_SET_NO><REV_AT_EPOCH>30019</REV_AT_EPOCH><BSTAR>.56264E-3</BSTAR><MEAN_MOTION_DOT>.1596E-4</MEAN_MOTION_DOT><MEAN_MOTION_DDOT>0</MEAN_MOTION_DDOT></tleParameters></data></segment></body></omm>
<omm id="CCSDS_OMM_VERS" version="2.0">
<header><CREATION_DATE/><ORIGINATOR/></header><body><segment><metadata><OBJECT_NAME>IRIDIUM 170</OBJECT_NAME><OBJECT_ID>2019-002J</OBJECT_ID><CENTER_NAME>EARTH</CENTER_NAME><REF_FRAME>TEME</REF_FRAME><TIME_SYSTEM>UTC</TIME_SYSTEM><MEAN_ELEMENT_THEORY>SGP4</MEAN_ELEMENT_THEORY></metadata><data><meanElements><EPOCH>2024-10-05T20:14:31.319520</EPOCH><MEAN_MOTION>14.72229426</MEAN_MOTION><ECCENTRICITY>.0002653</ECCENTRICITY><INCLINATION>86.6060</INCLINATION><RA_OF_ASC_NODE>252.3911</RA_OF_ASC_NODE><ARG_OF_PERICENTER>79.0191</ARG_OF_PERICENTER><MEAN_ANOMALY>281.1325</MEAN_ANOMALY></meanElements><tleParameters><EPHEMERIS_TYPE>0</EPHEMERIS_TYPE><CLASSIFICATION_TYPE>U</CLASSIFICATION_TYPE><NORAD_CAT_ID>43930</NORAD_CAT_ID><ELEMENT_SET_NO>999</ELEMENT_SET_NO><REV_AT_EPOCH>30813</REV_AT_EPOCH><BSTAR>.97001E-3</BSTAR><MEAN_MOTION_DOT>.6142E-4</MEAN_MOTION_DOT><MEAN_MOTION_DDOT>0</MEAN_MOTION_DDOT></tleParameters></data></segment></body></omm>
<omm id="CCSDS_OMM_VERS" version="2.0">
<header><CREATION_DATE/><ORIGINATOR/></header><body><segment><metadata><OBJECT_NAME>IRIDIUM 167</OBJECT_NAME><OBJECT_ID>2019-002K</OBJECT_ID><CENTER_NAME>EARTH</CENTER_NAME><REF_FRAME>TEME</REF_FRAME><TIME_SYSTEM>UTC</TIME_SYSTEM><MEAN_ELEMENT_THEORY>SGP4</MEAN_ELEMENT_THEORY></metadata><data><meanElements><EPOCH>2024-10-05T21:21:02.833632</EPOCH><MEAN_MOTION>14.34217723</MEAN_MOTION><ECCENTRICITY>.0002366</ECCENTRICITY><INCLINATION>86.3931</INCLINATION><RA_OF_ASC_NODE>252.3515</RA_OF_ASC_NODE><ARG_OF_PERICENTER>87.8661</ARG_OF_PERICENTER><MEAN_ANOMALY>272.2805</MEAN_ANOMALY></meanElements><tleParameters><EPHEMERIS_TYPE>0</EPHEMERIS_TYPE><CLASSIFICATION_TYPE>U</CLASSIFICATION_TYPE><NORAD_CAT_ID>43931</NORAD_CAT_ID><ELEMENT_SET_NO>999</ELEMENT_SET_NO><REV_AT_EPOCH>30019</REV_AT_EPOCH><BSTAR>-.26127E-4</BSTAR><MEAN_MOTION_DOT>-.53E-6</MEAN_MOTION_DOT><MEAN_MOTION_DDOT>0</MEAN_MOTION_DDOT></tleParameters></data></segment></body></omm>
<omm id="CCSDS_OMM_VERS" version="2.0">
<header><CREATION_DATE/><ORIGINATOR/></header><body><segment><metadata><OBJECT_NAME>IRIDIUM 181</OBJECT_NAME><OBJECT_ID>2023-068S</OBJECT_ID><CENTER_NAME>EARTH</CENTER_NAME><REF_FRAME>TEME</REF_FRAME><TIME_SYSTEM>UTC</TIME_SYSTEM><MEAN_ELEMENT_THEORY>SGP4</MEAN_ELEMENT_THEORY></metadata><data><meanElements><EPOCH>2024-10-05T19:20:07.736640</EPOCH><MEAN_MOTION>14.43578880</MEAN_MOTION><ECCENTRICITY>.0002512</ECCENTRICITY><INCLINATION>86.8607</INCLINATION><RA_OF_ASC_NODE>311.5358</RA_OF_ASC_NODE><ARG_OF_PERICENTER>92.4632</ARG_OF_PERICENTER><MEAN_ANOMALY>267.6858</MEAN_ANOMALY></meanElements><tleParameters><EPHEMERIS_TYPE>0</EPHEMERIS_TYPE><CLASSIFICATION_TYPE>U</CLASSIFICATION_TYPE><NORAD_CAT_ID>56726</NORAD_CAT_ID><ELEMENT_SET_NO>999</ELEMENT_SET_NO><REV_AT_EPOCH>7309</REV_AT_EPOCH><BSTAR>.64498E-3</BSTAR><MEAN_MOTION_DOT>.2203E-4</MEAN_MOTION_DOT><MEAN_MOTION_DDOT>0</MEAN_MOTION_DDOT></tleParameters></data></segment></body></omm>
<omm id="CCSDS_OMM_VERS" version="2.0">
<header><CREATION_DATE/><ORIGINATOR/></header><body><segment><metadata><OBJECT_NAME>IRIDIUM 177</OBJECT_NAME><OBJECT_ID>2023-068T</OBJECT_ID><CENTER_NAME>EARTH</CENTER_NAME><REF_FRAME>TEME</REF_FRAME><TIME_SYSTEM>UTC</TIME_SYSTEM><MEAN_ELEMENT_THEORY>SGP4</MEAN_ELEMENT_THEORY></metadata><data><meanElements><EPOCH>2024-10-05T19:43:04.788480</EPOCH><MEAN_MOTION>14.80260363</MEAN_MOTION><ECCENTRICITY>.0002456</ECCENTRICITY><INCLINATION>86.1924</INCLINATION><RA_OF_ASC_NODE>262.8076</RA_OF_ASC_NODE><ARG_OF_PERICENTER>101.5229</ARG_OF_PERICENTER><MEAN_ANOMALY>258.6268</MEAN_ANOMALY></meanElements><tleParameters><EPHEMERIS_TYPE>0</EPHEMERIS_TYPE><CLASSIFICATION_TYPE>U</CLASSIFICATION_TYPE><NORAD_CAT_ID>56727</NORAD_CAT_ID><ELEMENT_SET_NO>999</ELEMENT_SET_NO><REV_AT_EPOCH>7474</REV_AT_EPOCH><BSTAR>.42804E-3</BSTAR><MEAN_MOTION_DOT>.3282E-4</MEAN_MOTION_DOT><MEAN_MOTION_DDOT>0</MEAN_MOTION_DDOT></tleParameters></data></segment></body></omm>
<omm id="CCSDS_OMM_VERS" version="2.0">
<header><CREATION_DATE/><ORIGINATOR/></header><body><segment><metadata><OBJECT_NAME>IRIDIUM 174</OBJECT_NAME><OBJECT_ID>2023-068U</OBJECT_ID><CENTER_NAME>EARTH</CENTER_NAME><REF_FRAME>TEME</REF_FRAME><TIME_SYSTEM>UTC</TIME_SYSTEM><MEAN_ELEMENT_THEORY>SGP4</MEAN_ELEMENT_THEORY></metadata><data><meanElements><EPOCH>2024-10-05T21:12:56.705760</EPOCH><MEAN_MOTION>14.80245132</MEAN_MOTION><ECCENTRICITY>.0002594</ECCENTRICITY><INCLINATION>86.1930</INCLINATION><RA_OF_ASC_NODE>262.8906</RA_OF_ASC_NODE><ARG_OF_PERICENTER>97.9984</ARG_OF_PERICENTER><MEAN_ANOMALY>262.1531</MEAN_ANOMALY></meanElements><tleParameters><EPHEMERIS_TYPE>0</EPHEMERIS_TYPE><CLASSIFICATION_TYPE>U</CLASSIFICATION_TYPE><NORAD_CAT_ID>56728</NORAD_CAT_ID><ELEMENT_SET_NO>999</ELEMENT_SET_NO><REV_AT_EPOCH>7475</REV_AT_EPOCH><BSTAR>.44899E-3</BSTAR><MEAN_MOTION_DOT>.344E-4</MEAN_MOTION_DOT><MEAN_MOTION_DDOT>0</MEAN_MOTION_DDOT></tleParameters></data></segment></body></omm>
<omm id="CCSDS_OMM_VERS" version="2.0">
<header><CREATION_DATE/><ORIGINATOR/></header><body><segment><metadata><OBJECT_NAME>IRIDIUM 178</OBJECT_NAME><OBJECT_ID>2023-068V</OBJECT_ID><CENTER_NAME>EARTH</CENTER_NAME><REF_FRAME>TEME</REF_FRAME><TIME_SYSTEM>UTC</TIME_SYSTEM><MEAN_ELEMENT_THEORY>SGP4</MEAN_ELEMENT_THEORY></metadata><data><meanElements><EPOCH>2024-10-05T17:49:55.504992</EPOCH><MEAN_MOTION>14.80237014</MEAN_MOTION><ECCENTRICITY>.0002419</ECCENTRICITY><INCLINATION>86.5716</INCLINATION><RA_OF_ASC_NODE>285.6765</RA_OF_ASC_NODE><ARG_OF_PERICENTER>91.1068</ARG_OF_PERICENTER><MEAN_ANOMALY>269.0431</MEAN_ANOMALY></meanElements><tleParameters><EPHEMERIS_TYPE>0</EPHEMERIS_TYPE><CLASSIFICATION_TYPE>U</CLASSIFICATION_TYPE><NORAD_CAT_ID>56729</NORAD_CAT_ID><ELEMENT_SET_NO>999</ELEMENT_SET_NO><REV_AT_EPOCH>7473</REV_AT_EPOCH><BSTAR>.29376E-3</BSTAR><MEAN_MOTION_DOT>.2259E-4</MEAN_MOTION_DOT><MEAN_MOTION_DDOT>0</MEAN_MOTION_DDOT></tleParameters></data></segment></body></omm>
<omm id="CCSDS_OMM_VERS" version="2.0">
<header><CREATION_DATE/><ORIGINATOR/></header><body><segment><metadata><OBJECT_NAME>IRIDIUM 179</OBJECT_NAME><OBJECT_ID>2023-068W</OBJECT_ID><CENTER_NAME>EARTH</CENTER_NAME><REF_FRAME>TEME</REF_FRAME><TIME_SYSTEM>UTC</TIME_SYSTEM><MEAN_ELEMENT_THEORY>SGP4</MEAN_ELEMENT_THEORY></metadata><data><meanElements><EPOCH>2024-10-06T01:48:51.014016</EPOCH><MEAN_MOTION>14.80239097</MEAN_MOTION><ECCENTRICITY>.0002364</ECCENTRICITY><INCLINATION>86.6729</INCLINATION><RA_OF_ASC_NODE>291.0703</RA_OF_ASC_NODE><ARG_OF_PERICENTER>102.9724</ARG_OF_PERICENTER><MEAN_ANOMALY>257.1762</MEAN_ANOMALY></meanElements><tleParameters><EPHEMERIS_TYPE>0</EPHEMERIS_TYPE><CLASSIFICATION_TYPE>U</CLASSIFICATION_TYPE><NORAD_CAT_ID>56730</NORAD_CAT_ID><ELEMENT_SET_NO>999</ELEMENT_SET_NO><REV_AT_EPOCH>7478</REV_AT_EPOCH><BSTAR>.36857E-3</BSTAR><MEAN_MOTION_DOT>.2827E-4</MEAN_MOTION_DOT><MEAN_MOTION_DDOT>0</MEAN_MOTION_DDOT></tleParameters></data></segment></body></omm>
</ndm>
